{
  "type": "FeatureCollection",
  "features": [
    {
      "type": "Feature",
      "properties": {
        "norad_id": 33612,
        "name": "FENGYUN 1C DEB",
        "group": "fengyun-1c-debris",
        "lat": -24.694404785192074,
        "lon": 140.6799086908983,
        "alt_km": 927.071541569846,
        "timestamp": "2025-12-21T22:41:41.746678+00:00",
        "meta_object_name": "FENGYUN 1C DEB",
        "meta_object_id": "1999-025DCV",
        "meta_epoch": "2025-12-13T20:28:43.869792",
        "meta_mean_motion": 14.04084486,
        "meta_eccentricity": 0.01112826,
        "meta_inclination": 98.5972,
        "meta_ra_of_asc_node": 317.0094,
        "meta_arg_of_pericenter": 105.6891,
        "meta_mean_anomaly": 255.6586,
        "meta_ephemeris_type": 0,
        "meta_classification_type": "U",
        "meta_norad_cat_id": 33612,
        "meta_element_set_no": 999,
        "meta_rev_at_epoch": 56689,
        "meta_bstar": 0.0022025481,
        "meta_mean_motion_dot": 3.646e-05,
        "meta_mean_motion_ddot": 0,
        "tle_line1": "1 33612U 99025DCV 25347.85328553  .00003646  00000+0  22025-2 0  9991",
        "tle_line2": "2 33612  98.5972 317.0094 0111282 105.6891 255.6586 14.04084486566896"
      },
      "geometry": {
        "type": "Point",
        "coordinates": [
          140.6799086908983,
          -24.694404785192074
        ]
      }
    },
    {
      "type": "Feature",
      "properties": {
        "norad_id": 33613,
        "name": "FENGYUN 1C DEB",
        "group": "fengyun-1c-debris",
        "lat": -50.70997110107013,
        "lon": -123.08673812909612,
        "alt_km": 808.9351599186366,
        "timestamp": "2025-12-21T22:41:41.746690+00:00",
        "meta_object_name": "FENGYUN 1C DEB",
        "meta_object_id": "1999-025DCW",
        "meta_epoch": "2025-12-16T22:39:46.027872",
        "meta_mean_motion": 14.33243029,
        "meta_eccentricity": 0.00302029,
        "meta_inclination": 98.6973,
        "meta_ra_of_asc_node": 62.6736,
        "meta_arg_of_pericenter": 76.3387,
        "meta_mean_anomaly": 284.1157,
        "meta_ephemeris_type": 0,
        "meta_classification_type": "U",
        "meta_norad_cat_id": 33613,
        "meta_element_set_no": 999,
        "meta_rev_at_epoch": 64570,
        "meta_bstar": 0.001526734,
        "meta_mean_motion_dot": 4.177e-05,
        "meta_mean_motion_ddot": 0,
        "tle_line1": "1 33613U 99025DCW 25350.94428273  .00004177  00000+0  15267-2 0  9996",
        "tle_line2": "2 33613  98.6973  62.6736 0030202  76.3387 284.1157 14.33243029645702"
      },
      "geometry": {
        "type": "Point",
        "coordinates": [
          -123.08673812909612,
          -50.70997110107013
        ]
      }
    },
    {
      "type": "Feature",
      "properties": {
        "norad_id": 33618,
        "name": "FENGYUN 1C DEB",
        "group": "fengyun-1c-debris",
        "lat": -5.424835613877604,
        "lon": 84.39933920384712,
        "alt_km": 741.8081582452751,
        "timestamp": "2025-12-21T22:41:41.746700+00:00",
        "meta_object_name": "FENGYUN 1C DEB",
        "meta_object_id": "1999-025DDB",
        "meta_epoch": "2025-12-21T11:13:26.263776",
        "meta_mean_motion": 14.62206729,
        "meta_eccentricity": 0.01650147,
        "meta_inclination": 98.5304,
        "meta_ra_of_asc_node": 83.0891,
        "meta_arg_of_pericenter": 113.5029,
        "meta_mean_anomaly": 248.3608,
        "meta_ephemeris_type": 0,
        "meta_classification_type": "U",
        "meta_norad_cat_id": 33618,
        "meta_element_set_no": 999,
        "meta_rev_at_epoch": 96911,
        "meta_bstar": 0.00057976431,
        "meta_mean_motion_dot": 3.493e-05,
        "meta_mean_motion_ddot": 0,
        "tle_line1": "1 33618U 99025DDB 25355.46766509  .00003493  00000+0  57976-3 0  9994",
        "tle_line2": "2 33618  98.5304  83.0891 0165014 113.5029 248.3608 14.62206729969115"
      },
      "geometry": {
        "type": "Point",
        "coordinates": [
          84.39933920384712,
          -5.424835613877604
        ]
      }
    },
    {
      "type": "Feature",
      "properties": {
        "norad_id": 33619,
        "name": "FENGYUN 1C DEB",
        "group": "fengyun-1c-debris",
        "lat": -17.12757649794666,
        "lon": -117.43646836098556,
        "alt_km": 874.7754113828387,
        "timestamp": "2025-12-21T22:41:41.746710+00:00",
        "meta_object_name": "FENGYUN 1C DEB",
        "meta_object_id": "1999-025DDC",
        "meta_epoch": "2025-12-20T22:03:08.437824",
        "meta_mean_motion": 14.17544174,
        "meta_eccentricity": 0.0050327,
        "meta_inclination": 98.8611,
        "meta_ra_of_asc_node": 64.2953,
        "meta_arg_of_pericenter": 22.4017,
        "meta_mean_anomaly": 337.934,
        "meta_ephemeris_type": 0,
        "meta_classification_type": "U",
        "meta_norad_cat_id": 33619,
        "meta_element_set_no": 999,
        "meta_rev_at_epoch": 63740,
        "meta_bstar": 0.00091987,
        "meta_mean_motion_dot": 1.847e-05,
        "meta_mean_motion_ddot": 0,
        "tle_line1": "1 33619U 99025DDC 25354.91884766  .00001847  00000+0  91987-3 0  9991",
        "tle_line2": "2 33619  98.8611  64.2953 0050327  22.4017 337.9340 14.17544174637406"
      },
      "geometry": {
        "type": "Point",
        "coordinates": [
          -117.43646836098556,
          -17.12757649794666
        ]
      }
    },
    {
      "type": "Feature",
      "properties": {
        "norad_id": 33621,
        "name": "FENGYUN 1C DEB",
        "group": "fengyun-1c-debris",
        "lat": 12.64417460976446,
        "lon": 27.810127441709717,
        "alt_km": 859.3565254617342,
        "timestamp": "2025-12-21T22:41:41.746720+00:00",
        "meta_object_name": "FENGYUN 1C DEB",
        "meta_object_id": "1999-025DDE",
        "meta_epoch": "2025-12-10T20:17:14.702784",
        "meta_mean_motion": 14.19482835,
        "meta_eccentricity": 0.02846988,
        "meta_inclination": 98.1391,
        "meta_ra_of_asc_node": 195.7496,
        "meta_arg_of_pericenter": 300.0128,
        "meta_mean_anomaly": 57.3079,
        "meta_ephemeris_type": 0,
        "meta_classification_type": "U",
        "meta_norad_cat_id": 33621,
        "meta_element_set_no": 999,
        "meta_rev_at_epoch": 64217,
        "meta_bstar": 0.00099524636,
        "meta_mean_motion_dot": 3.099e-05,
        "meta_mean_motion_ddot": 0,
        "tle_line1": "1 33621U 99025DDE 25344.84530906  .00003099  00000+0  99525-3 0  9996",
        "tle_line2": "2 33621  98.1391 195.7496 0284698 300.0128  57.3079 14.19482835642176"
      },
      "geometry": {
        "type": "Point",
        "coordinates": [
          27.810127441709717,
          12.64417460976446
        ]
      }
    },
    {
      "type": "Feature",
      "properties": {
        "norad_id": 33625,
        "name": "FENGYUN 1C DEB",
        "group": "fengyun-1c-debris",
        "lat": -14.69782692539523,
        "lon": 109.26983861330946,
        "alt_km": 775.071470402143,
        "timestamp": "2025-12-21T22:41:41.746730+00:00",
        "meta_object_name": "FENGYUN 1C DEB",
        "meta_object_id": "1999-025DDJ",
        "meta_epoch": "2025-12-21T06:19:43.531392",
        "meta_mean_motion": 14.61138733,
        "meta_eccentricity": 0.02254354,
        "meta_inclination": 98.6212,
        "meta_ra_of_asc_node": 106.2784,
        "meta_arg_of_pericenter": 108.9807,
        "meta_mean_anomaly": 253.5967,
        "meta_ephemeris_type": 0,
        "meta_classification_type": "U",
        "meta_norad_cat_id": 33625,
        "meta_element_set_no": 999,
        "meta_rev_at_epoch": 61515,
        "meta_bstar": 0.00086974037,
        "meta_mean_motion_dot": 6.089e-05,
        "meta_mean_motion_ddot": 0,
        "tle_line1": "1 33625U 99025DDJ 25355.26369828  .00006089  00000+0  86974-3 0  9997",
        "tle_line2": "2 33625  98.6212 106.2784 0225435 108.9807 253.5967 14.61138733615153"
      },
      "geometry": {
        "type": "Point",
        "coordinates": [
          109.26983861330946,
          -14.69782692539523
        ]
      }
    },
    {
      "type": "Feature",
      "properties": {
        "norad_id": 33630,
        "name": "FENGYUN 1C DEB",
        "group": "fengyun-1c-debris",
        "lat": 31.941834957648787,
        "lon": -72.70960626801103,
        "alt_km": 856.5814648094929,
        "timestamp": "2025-12-21T22:41:41.746740+00:00",
        "meta_object_name": "FENGYUN 1C DEB",
        "meta_object_id": "1999-025DDP",
        "meta_epoch": "2025-12-16T13:17:07.494144",
        "meta_mean_motion": 14.17726795,
        "meta_eccentricity": 0.01350341,
        "meta_inclination": 98.616,
        "meta_ra_of_asc_node": 96.6346,
        "meta_arg_of_pericenter": 57.1725,
        "meta_mean_anomaly": 304.237,
        "meta_ephemeris_type": 0,
        "meta_classification_type": "U",
        "meta_norad_cat_id": 33630,
        "meta_element_set_no": 999,
        "meta_rev_at_epoch": 64465,
        "meta_bstar": 0.00032109765,
        "meta_mean_motion_dot": 6.74e-06,
        "meta_mean_motion_ddot": 0,
        "tle_line1": "1 33630U 99025DDP 25350.55355896  .00000674  00000+0  32110-3 0  9997",
        "tle_line2": "2 33630  98.6160  96.6346 0135034  57.1725 304.2370 14.17726795644657"
      },
      "geometry": {
        "type": "Point",
        "coordinates": [
          -72.70960626801103,
          31.941834957648787
        ]
      }
    }
  ]
}